STARLINK-4005           
1 52686U 22053AG  25021.88596768  .00000923  00000+0  76055-4 0  9996
2 52686  53.2169 193.0553 0001420  97.7479 262.3674 15.08843817148953
STARLINK-3981           
1 52687U 22053AH  25021.91074358  .00000957  00000+0  78194-4 0  9990
2 52687  53.2172 192.6685 0001551  95.0030 265.1140 15.08838325148955
STARLINK-4032           
1 52688U 22053AJ  25021.84080820  .00001215  00000+0  94431-4 0  9994
2 52688  53.2173 192.8658 0001322  89.5987 270.5156 15.08839994148943
STARLINK-4078           
1 52689U 22053AK  25021.89870441  .00021487  00000+0  13508-2 0  9993
2 52689  53.2161 192.7120 0001198  68.8568 291.2552 15.09197898148985
STARLINK-4035           
1 52690U 22053AL  25021.78562290  .00000239  00000+0  33084-4 0  9998
2 52690  53.2168 193.2292 0001307  89.4446 270.6696 15.08839806148932
STARLINK-3993           
1 52692U 22053AN  25021.88126914  .00004755  00000+0  31667-3 0  9991
2 52692  53.2171 192.5254 0001400  89.7842 270.3311 15.08838583148982
STARLINK-3946           
1 52693U 22053AP  25021.88866265 -.00000082  00000+0  12952-4 0  9999
2 52693  53.2178 192.7646 0001797  64.5555 295.5623 15.08837757148985
STARLINK-4072           
1 52694U 22053AQ  25021.90338401  .00000645  00000+0  58598-4 0  9999
2 52694  53.2168 192.7018 0001469  88.9714 271.1447 15.08839290148989
STARLINK-4041           
1 52695U 22053AR  25021.87529436  .00001044  00000+0  83661-4 0  9999
2 52695  53.2165 197.6240 0001386  87.7942 272.3208 15.08842993148922
STARLINK-4018           
1 52697U 22053AT  25021.90203685 -.00000229  00000+0  37226-5 0  9992
2 52697  53.2179 197.7060 0001357  88.8383 271.2765 15.08845297148925
STARLINK-4030           
1 52698U 22053AU  25021.91212210  .00000550  00000+0  52645-4 0  9995
2 52698  53.2172 197.6509 0001370  88.1751 271.9398 15.08835736148918
STARLINK-3987           
1 52699U 22053AV  25021.69224274  .00000462  00000+0  47136-4 0  9995
2 52699  53.2167 188.6737 0001221  89.7806 270.3326 15.08836724149046
STARLINK-4034           
1 52700U 22053AW  25021.87159392  .00001821  00000+0  13245-3 0  9999
2 52700  53.2168 197.4873 0001384  86.0297 274.0853 15.08845875148517
STARLINK-4033           
1 52702U 22053AY  25021.90109269 -.00001157  00000+0 -54618-4 0  9997
2 52702  53.2178 197.7376 0001420  95.9659 264.1495 15.08842152148925
STARLINK-4020           
1 52703U 22053AZ  25021.86014358  .00000552  00000+0  52767-4 0  9996
2 52703  53.2169 182.9044 0001237  90.3673 269.7461 15.08838780147863
STARLINK-3999           
1 52704U 22053BA  25021.74238419  .00000675  00000+0  60514-4 0  9995
2 52704  53.2170 183.4230 0001216  90.9549 269.1582 15.08837947149127
STARLINK-3844           
1 52705U 22053BB  25021.73134297 -.00000510  00000+0 -13958-4 0  9994
2 52705  53.2180 183.4731 0001414  94.6031 265.5122 15.08849620149123
STARLINK-3970           
1 52706U 22053BC  25021.86751430  .00001153  00000+0  90490-4 0  9991
2 52706  53.2161 182.8573 0001336  89.6295 270.4850 15.08839500149140
STARLINK-4007           
1 52707U 22053BD  25021.84540048  .00001720  00000+0  12613-3 0  9991
2 52707  53.2174 182.8429 0001431  88.6468 271.4688 15.08848058149207
STARLINK-3962           
1 52708U 22053BE  25021.82334758  .00002782  00000+0  19277-3 0  9991
2 52708  53.2173 183.0517 0001216  68.5261 291.5861 15.08843507149342
STARLINK-4091           
1 52830U 22062A   25021.43880179  .00002297  00000+0  16239-3 0  9993
2 52830  53.2173  84.9792 0001518  68.5067 291.6087 15.08832302143549
STARLINK-4089           
1 52831U 22062B   25021.43138919  .00002710  00000+0  18806-3 0  9994
2 52831  53.2162  84.8196 0002485 149.5091 210.6047 15.08895595143546
STARLINK-4083           
1 52832U 22062C   25021.49398425  .00000764  00000+0  66063-4 0  9997
2 52832  53.2180  84.5368 0001453  86.1693 273.9466 15.08840964143551
STARLINK-4086           
1 52833U 22062D   25021.55654437  .00002152  00000+0  15327-3 0  9992
2 52833  53.2183  84.2578 0001828  87.6670 272.4532 15.08843331143562
STARLINK-4108           
1 52834U 22062E   25021.54918961 -.00000307  00000+0 -12125-5 0  9994
2 52834  53.2177  84.2923 0001692  79.5392 280.5791 15.08827442143562
STARLINK-4080           
1 52835U 22062F   25021.54549995  .00000337  00000+0  39281-4 0  9994
2 52835  53.2198  84.3110 0001516  99.1336 260.9828 15.08841400143569
STARLINK-4043           
1 52836U 22062G   25021.57225873 -.00000160  00000+0  80228-5 0  9997
2 52836  53.2192  84.5018 0001542 101.9078 258.2087 15.08842009143560
STARLINK-4036           
1 52837U 22062H   25021.46822459  .00001637  00000+0  12094-3 0  9992
2 52837  53.2189  84.6567 0001475 102.3519 257.7638 15.08836519143551
STARLINK-4092           
1 52838U 22062J   25021.60438600 -.00000811  00000+0 -32873-4 0  9993
2 52838  53.2185  84.0333 0001401  84.2008 275.9144 15.08834506143573
STARLINK-4048           
1 52839U 22062K   25021.46086275  .00003895  00000+0  26266-3 0  9996
2 52839  53.2187  84.6878 0001547  94.7563 265.3606 15.08838815143550
STARLINK-4049           
1 52840U 22062L   25021.54183843 -.00000024  00000+0  16582-4 0  9999
2 52840  53.2198  84.4437 0001669  88.2368 271.8816 15.08834331143564
STARLINK-4065           
1 52841U 22062M   25021.58230358  .00002060  00000+0  14743-3 0  9995
2 52841  53.2168  84.1394 0001484  97.0071 263.1090 15.08845826143575
STARLINK-4046           
1 52842U 22062N   25021.46454302  .00001295  00000+0  99490-4 0  9992
2 52842  53.2205  84.5990 0001506  94.8668 265.2496 15.08826359143557
STARLINK-4188           
1 52843U 22062P   25021.57494747 -.00001880  00000+0 -10010-3 0  9994
2 52843  53.2170  84.1718 0001440  99.2082 260.9074 15.08825528143572
STARLINK-4208           
1 52844U 22062Q   25021.45718068  .00000683  00000+0  60990-4 0  9998
2 52844  53.2179  84.6985 0001555  94.7230 265.3940 15.08839500143559
STARLINK-4168           
1 52845U 22062R   25021.44615112  .00003000  00000+0  20649-3 0  9996
2 52845  53.2170  84.8153 0001440 119.0888 241.0248 15.08839199143559
STARLINK-4212           
1 52846U 22062S   25021.44710057 -.00000660  00000+0 -23360-4 0  9996
2 52846  53.2181  84.7576 0001542  94.4438 265.6730 15.08835203143550
STARLINK-4206           
1 52847U 22062T   25021.43510263  .00000298  00000+0  36792-4 0  9991
2 52847  53.2181  84.7988 0001313 102.1958 257.9181 15.08843092143557
STARLINK-4202           
1 52848U 22062U   25021.45350511  .00003195  00000+0  21868-3 0  9998
2 52848  53.2172  84.7193 0001285  96.7222 263.3917 15.08847566143554
STARLINK-4197           
1 52849U 22062V   25021.42866026  .00002789  00000+0  19329-3 0  9996
2 52849  53.2180  74.8292 0001544  91.6561 268.4608 15.08836048143682
STARLINK-4187           
1 52850U 22062W   25021.47289191  .00007998  00000+0  51978-3 0  9998
2 52850  53.2169  84.9895 0001124  93.9720 266.1400 15.08859628143558
STARLINK-3809           
1 52851U 22062X   25021.55745765  .00002735  00000+0  18980-3 0  9992
2 52851  53.2172  74.2511 0001439  98.9942 261.1213 15.08849534143709
STARLINK-4184           
1 52852U 22062Y   25021.43234639  .00000300  00000+0  36919-4 0  9992
2 52852  53.2175  74.8136 0001450  84.2806 275.8351 15.08834057143688
STARLINK-4189           
1 52853U 22062Z   25021.41489283  .00001408  00000+0  10656-3 0  9997
2 52853  53.2179  74.8654 0001531  86.3004 273.8163 15.08842641143688
STARLINK-4204           
1 52854U 22062AA  25021.55377640  .00001031  00000+0  82870-4 0  9996
2 52854  53.2173  74.2680 0001480  95.0056 265.1106 15.08842041143701
STARLINK-4209           
1 52855U 22062AB  25021.54274143  .00000785  00000+0  67371-4 0  9994
2 52855  53.2184  74.3177 0001433  97.8841 262.2314 15.08843181143701
STARLINK-4201           
1 52856U 22062AC  25021.55105557  .00003760  00000+0  25411-3 0  9992
2 52856  53.2172  74.3287 0001591  99.5553 260.5619 15.08853713143706
STARLINK-4199           
1 52857U 22062AD  25021.40289728  .00001759  00000+0  12853-3 0  9992
2 52857  53.2190  74.9488 0001573  81.2516 278.8654 15.08850250143684
STARLINK-4198           
1 52858U 22062AE  25021.41393814  .00000169  00000+0  28690-4 0  9997
2 52858  53.2179  74.9263 0001429  85.7503 274.3653 15.08850374144170
STARLINK-4196           
1 52859U 22062AF  25021.46546948  .00007546  00000+0  49177-3 0  9999
2 52859  53.2166  74.6668 0002397  91.4203 268.7064 15.08834101143698
STARLINK-4191           
1 52860U 22062AG  25021.40657568  .00001903  00000+0  13761-3 0  9997
2 52860  53.2184  74.9326 0001610  83.6485 276.4691 15.08846944143685
STARLINK-4112           
1 52861U 22062AH  25021.51426224  .00000856  00000+0  71909-4 0  9998
2 52861  53.2183  74.4589 0001539  99.1073 261.0093 15.08834570143707
STARLINK-4010           
1 52862U 22062AJ  25021.52802627  .00000981  00000+0  79728-4 0  9991
2 52862  53.2181  74.3880 0001668  88.5371 271.5812 15.08840766143704
STARLINK-4270           
1 52863U 22062AK  25021.52066175  .00003424  00000+0  23306-3 0  9997
2 52863  53.2190  74.4211 0001523 102.1512 257.9651 15.08848129143704
STARLINK-4267           
1 52864U 22062AL  25021.52433621  .00002312  00000+0  16330-3 0  9996
2 52864  53.2166  74.3977 0001524 113.6199 246.4953 15.08847542143701
STARLINK-4274           
1 52865U 22062AM  25021.57586024  .00002411  00000+0  16952-3 0  9998
2 52865  53.2185  74.1723 0001331 103.8173 256.2967 15.08842830143719
STARLINK-4272           
1 52866U 22062AN  25021.51698104  .00000714  00000+0  62968-4 0  9999
2 52866  53.2178  74.4374 0001349  92.7012 267.4135 15.08837306143706
STARLINK-4126           
1 52867U 22062AP  25021.56850605  .00001504  00000+0  11260-3 0  9997
2 52867  53.2180  74.2006 0001402  81.4334 278.6817 15.08834099144205
STARLINK-4261           
1 52868U 22062AQ  25021.44706890  .00000652  00000+0  59027-4 0  9998
2 52868  53.2184  74.7764 0001285  90.0613 270.0526 15.08838000143692
